NORAD_CAT_ID,OBJECT_NAME,OBJECT_TYPE,EPOCH,MEAN_MOTION,ECCENTRICITY,INCLINATION,RA_OF_ASC_NODE,ARG_OF_PERICENTER,MEAN_ANOMALY,BSTAR,MEAN_MOTION_DOT,MEAN_MOTION_DDOT,TLE_LINE0,TLE_LINE1,TLE_LINE2,SEMIMAJOR_AXIS,PERIOD,APOGEE,PERIGEE,DECAYED
49437.0,STARLINK-3130,PAYLOAD,2024-07-20 14:34:36,15.08843776,0.0001394,53.2157,9.5308,87.6754,272.4398,0.00019532,2.822e-05,0.0,0 STARLINK-3130,1 49437U 21104AF  24202.60736417  .00002822  00000-0  19532-3 0  9996,2 49437  53.2157   9.5308 0001394  87.6754 272.4398 15.08843776148772,6917.869,95.437,540.698,538.769,0.0
49437.0,STARLINK-3130,PAYLOAD,2024-07-20 17:45:22,15.08843743,0.0001264,53.2173,8.9311,110.0431,250.0697,0.00034084,5.141e-05,0.0,0 STARLINK-3130,1 49437U 21104AF  24202.73984318  .00005141  00000-0  34084-3 0  9991,2 49437  53.2173   8.9311 0001264 110.0431 250.0697 15.08843743148796,6917.869,95.437,540.608,538.86,0.0
49437.0,STARLINK-3130,PAYLOAD,2024-07-21 14:25:23,15.08843407,0.000138,53.2182,5.0678,100.5124,259.6023,5.5686e-05,5.99e-06,0.0,0 STARLINK-3130,1 49437U 21104AF  24203.60096260  .00000599  00000-0  55686-4 0  9992,2 49437  53.2182   5.0678 0001380 100.5124 259.6023 15.08843407148922,6917.87,95.437,540.69,538.78,0.0
49437.0,STARLINK-3130,PAYLOAD,2024-07-21 16:00:46,15.08847176,0.0001439,53.2177,4.7714,98.8982,261.2174,2.1186e-05,4.9e-07,0.0,0 STARLINK-3130,1 49437U 21104AF  24203.66720061  .00000049  00000-0  21186-4 0  9999,2 49437  53.2177   4.7714 0001439  98.8982 261.2174 15.08847176150004,6917.858,95.437,540.719,538.728,0.0
49437.0,STARLINK-3130,PAYLOAD,2024-07-22 11:05:24,15.08841813,0.0001327,53.2169,1.2057,102.0767,258.0374,-0.00012105,-2.214e-05,0.0,0 STARLINK-3130,1 49437U 21104AF  24204.46208470 -.00002214  00000-0 -12105-3 0  9991,2 49437  53.2169   1.2057 0001327 102.0767 258.0374 15.08841813150123,6917.875,95.437,540.658,538.822,0.0
49437.0,STARLINK-3130,PAYLOAD,2024-07-24 09:11:35,15.08841636,0.0001422,53.218,352.5793,102.2185,257.8966,9.6054e-05,1.241e-05,0.0,0 STARLINK-3130,1 49437U 21104AF  24206.38304657  .00001241  00000-0  96054-4 0  9991,2 49437  53.2180 352.5793 0001422 102.2185 257.8966 15.08841636150416,6917.875,95.437,540.724,538.757,0.0
49437.0,STARLINK-3130,PAYLOAD,2024-07-25 09:02:21,15.08849478,0.0005414,53.2176,348.1196,128.8052,231.3424,0.00014209,1.974e-05,0.0,0 STARLINK-3130,1 49437U 21104AF  24207.37663495  .00001974  00000-0  14209-3 0  9993,2 49437  53.2176 348.1196 0005414 128.8052 231.3424 15.08849478150565,6917.851,95.437,543.462,535.971,0.0
49437.0,STARLINK-3130,PAYLOAD,2024-07-25 16:59:18,15.08838925,0.0001649,53.2177,346.6334,100.0066,260.1112,-6.4472e-05,-1.314e-05,0.0,0 STARLINK-3130,1 49437U 21104AF  24207.70785701 -.00001314  00000-0 -64472-4 0  9993,2 49437  53.2177 346.6334 0001649 100.0066 260.1112 15.08838925150611,6917.884,95.438,540.889,538.608,0.0
49437.0,STARLINK-3130,PAYLOAD,2024-07-26 02:31:36,15.08938128,0.0001559,53.2159,344.8484,113.9388,246.1767,-0.0013911,-0.00022419,0.0,0 STARLINK-3130,1 49437U 21104AF  24208.10528662 -.00022419  00000-0 -13911-2 0  9998,2 49437  53.2159 344.8484 0001559 113.9388 246.1767 15.08938128150679,6917.58,95.431,540.524,538.367,0.0
49437.0,STARLINK-3130,PAYLOAD,2024-07-26 08:53:07,15.08969853,6.01e-05,53.2159,343.66,107.6031,252.5027,-0.0019096,-0.00030657,0.0,0 STARLINK-3130,1 49437U 21104AF  24208.37022353 -.00030657  00000-0 -19096-2 0  9996,2 49437  53.2159 343.6600 0000601 107.6031 252.5027 15.08969853150712,6917.484,95.429,539.764,538.933,0.0
49437.0,STARLINK-3130,PAYLOAD,2024-07-26 13:39:19,15.08831532,0.0002542,53.2178,342.7617,124.4998,235.6234,-0.00011118,-2.057e-05,0.0,0 STARLINK-3130,1 49437U 21104AF  24208.56897762 -.00002057  00000-0 -11118-3 0  9992,2 49437  53.2178 342.7617 0002542 124.4998 235.6234 15.08831532149673,6917.906,95.438,541.53,538.013,0.0
49437.0,STARLINK-3130,PAYLOAD,2024-07-26 20:00:52,15.08826103,0.0002528,53.2178,341.5784,104.1862,255.9411,-0.00012336,-2.251e-05,0.0,0 STARLINK-3130,1 49437U 21104AF  24208.83394536 -.00002251  00000-0 -12336-3 0  9992,2 49437  53.2178 341.5784 0002528 104.1862 255.9411 15.08826103150788,6917.923,95.438,541.537,538.039,0.0
49437.0,STARLINK-3130,PAYLOAD,2024-07-26 21:36:15,15.08821077,0.0001295,53.2163,341.2813,102.7169,257.3968,8.5888e-05,1.079e-05,0.0,0 STARLINK-3130,1 49437U 21104AF  24208.90017979  .00001079  00000-0  85888-4 0  9991,2 49437  53.2163 341.2813 0001295 102.7169 257.3968 15.08821077149726,6917.938,95.439,540.699,538.907,0.0
49437.0,STARLINK-3130,PAYLOAD,2024-07-27 02:22:25,15.08822536,0.0001285,53.2161,340.3884,109.9221,250.191,9.2522e-05,1.184e-05,0.0,0 STARLINK-3130,1 49437U 21104AF  24209.09890096  .00001184  00000-0  92522-4 0  9991,2 49437  53.2161 340.3884 0001285 109.9221 250.1910 15.08822536149751,6917.934,95.439,540.688,538.91,0.0
49437.0,STARLINK-3130,PAYLOAD,2024-07-27 07:08:33,15.08837606,0.0001457,53.2165,339.497,98.7256,261.3901,0.00020868,3.035e-05,0.0,0 STARLINK-3130,1 49437U 21104AF  24209.29761116  .00003035  00000-0  20868-3 0  9993,2 49437  53.2165 339.4970 0001457  98.7256 261.3901 15.08837606150855,6917.888,95.438,540.761,538.745,0.0
49437.0,STARLINK-3130,PAYLOAD,2024-07-27 18:16:14,15.088529,0.0001041,53.2167,337.4131,116.9603,243.1495,0.00028857,4.309e-05,0.0,0 STARLINK-3130,1 49437U 21104AF  24209.76127855  .00004309  00000-0  28857-3 0  9992,2 49437  53.2167 337.4131 0001041 116.9603 243.1495 15.08852900149850,6917.841,95.437,540.426,538.986,0.0
49437.0,STARLINK-3130,PAYLOAD,2024-07-28 02:13:10,15.08851228,0.0001123,53.2175,335.928,92.5585,267.5536,0.00025521,3.777e-05,0.0,0 STARLINK-3130,1 49437U 21104AF  24210.09248069  .00003777  00000-0  25521-3 0  9994,2 49437  53.2175 335.9280 0001123  92.5585 267.5536 15.08851228150979,6917.846,95.437,540.488,538.934,0.0
49437.0,STARLINK-3130,PAYLOAD,2024-07-28 19:42:23,15.08865516,9.31e-05,53.2178,332.6574,94.485,265.6248,0.00046579,7.138e-05,0.0,0 STARLINK-3130,1 49437U 21104AF  24210.82110235  .00007138  00000-0  46579-3 0  9999,2 49437  53.2178 332.6574 0000931  94.4850 265.6248 15.08865516151081,6917.802,95.436,540.311,539.023,0.0
49437.0,STARLINK-3130,PAYLOAD,2024-07-29 14:47:03,15.08838073,0.0001537,53.2188,329.0845,111.2455,248.8701,-8.2808e-05,-1.606e-05,0.0,0 STARLINK-3130,1 49437U 21104AF  24211.61601331 -.00001606  00000-0 -82808-4 0  9991,2 49437  53.2188 329.0845 0001537 111.2455 248.8701 15.08838073150135,6917.886,95.438,540.815,538.688,0.0
49437.0,STARLINK-3130,PAYLOAD,2024-07-29 19:33:13,15.088373,0.0001282,53.2195,328.1929,100.1973,259.9163,-0.0001466,-2.62e-05,0.0,0 STARLINK-3130,1 49437U 21104AF  24211.81473521 -.00002620  00000-0 -14660-3 0  9998,2 49437  53.2195 328.1929 0001282 100.1973 259.9163 15.08837300151234,6917.889,95.438,540.641,538.867,0.0
49437.0,STARLINK-3130,PAYLOAD,2024-07-30 14:37:50,15.08842532,9.29e-05,53.2197,324.6279,82.6648,277.445,-9.7076e-05,-1.832e-05,0.0,0 STARLINK-3130,1 49437U 21104AF  24212.60961042 -.00001832  00000-0 -97076-4 0  9993,2 49437  53.2197 324.6279 0000929  82.6648 277.4450 15.08842532150286,6917.873,95.437,540.38,539.095,0.0
49437.0,STARLINK-3130,PAYLOAD,2024-07-31 12:53:16,15.08741885,0.0001497,53.2179,320.4649,69.1387,290.9765,0.0012293,0.00019278,0.0,0 STARLINK-3130,1 49437U 21104AF  24213.53699913  .00019278  00000-0  12293-2 0  9998,2 49437  53.2179 320.4649 0001497  69.1387 290.9765 15.08741885151494,6918.18,95.444,541.081,539.01,0.0
49437.0,STARLINK-3130,PAYLOAD,2024-07-31 14:28:38,15.08828962,7.47e-05,53.2168,320.169,84.731,275.3768,3.4528e-05,2.62e-06,0.0,0 STARLINK-3130,1 49437U 21104AF  24213.60322435  .00000262  00000-0  34528-4 0  9998,2 49437  53.2168 320.1690 0000747  84.7310 275.3768 15.08828962150436,6917.914,95.438,540.296,539.262,0.0
49437.0,STARLINK-3130,PAYLOAD,2024-07-31 17:39:25,15.08802288,9.23e-05,53.2169,319.5727,62.2735,297.8351,0.00051212,7.864e-05,0.0,0 STARLINK-3130,1 49437U 21104AF  24213.73571055  .00007864  00000-0  51212-3 0  9999,2 49437  53.2169 319.5727 0000923  62.2735 297.8351 15.08802288150450,6917.996,95.44,540.499,539.222,0.0
49437.0,STARLINK-3130,PAYLOAD,2024-08-01 00:00:56,15.08836207,8.78e-05,53.218,318.3841,73.9603,286.1486,0.00019762,2.858e-05,0.0,0 STARLINK-3130,1 49437U 21104AF  24214.00065925  .00002858  00000-0  19762-3 0  9996,2 49437  53.2180 318.3841 0000878  73.9603 286.1486 15.08836207151560,6917.892,95.438,540.364,539.15,0.0
49437.0,STARLINK-3130,PAYLOAD,2024-08-01 11:08:37,15.08848077,7.38e-05,53.2161,316.2987,33.47,326.6338,0.00024507,3.616e-05,0.0,0 STARLINK-3130,1 49437U 21104AF  24214.46432826  .00003616  00000-0  24507-3 0  9990,2 49437  53.2161 316.2987 0000738  33.4700 326.6338 15.08848077151633,6917.856,95.437,540.231,539.21,0.0
49437.0,STARLINK-3130,PAYLOAD,2024-08-01 15:54:47,15.08859162,0.0001656,53.2172,315.4122,75.6139,284.5037,0.0004667,7.151e-05,0.0,0 STARLINK-3130,1 49437U 21104AF  24214.66304792  .00007151  00000-0  46670-3 0  9995,2 49437  53.2172 315.4122 0001656  75.6139 284.5037 15.08859162150590,6917.822,95.436,540.832,538.541,0.0
49437.0,STARLINK-3130,PAYLOAD,2024-08-02 12:34:49,15.0882753,0.0001352,53.2178,311.5454,85.0826,275.0321,-0.00011295,-2.084e-05,0.0,0 STARLINK-3130,1 49437U 21104AF  24215.52418824 -.00002084  00000-0 -11295-3 0  9990,2 49437  53.2178 311.5454 0001352  85.0826 275.0321 15.08827530151790,6917.919,95.438,540.719,538.848,0.0
49437.0,STARLINK-3130,PAYLOAD,2024-08-02 14:10:12,15.08828995,0.0001334,53.2176,311.248,82.7345,277.3798,-8.3862e-05,-1.622e-05,0.0,0 STARLINK-3130,1 49437U 21104AF  24215.59042794 -.00001622  00000-0 -83862-4 0  9993,2 49437  53.2176 311.2480 0001334  82.7345 277.3798 15.08828995150736,6917.914,95.438,540.702,538.856,0.0
49437.0,STARLINK-3130,PAYLOAD,2024-08-02 15:45:36,15.08831677,0.0001338,53.2176,310.9504,82.3222,277.7922,-4.036e-05,-9.3e-06,0.0,0 STARLINK-3130,1 49437U 21104AF  24215.65666710 -.00000930  00000-0 -40360-4 0  9997,2 49437  53.2176 310.9504 0001338  82.3222 277.7922 15.08831677150748,6917.906,95.438,540.696,538.845,0.0
